{
    "links": {
        "self": "http://www.neowsapp.com/rest/v1/neo/54087377?api_key=iIulBulltgU6a56xZRHN4H3l9WmuAYTsLGpBGhQ2"
    },
    "id": "54087377",
    "neo_reference_id": "54087377",
    "name": "(2020 VC)",
    "designation": "2020 VC",
    "nasa_jpl_url": "http://ssd.jpl.nasa.gov/sbdb.cgi?sstr=54087377",
    "absolute_magnitude_h": 25.102,
    "estimated_diameter": {
        "kilometers": {
            "estimated_diameter_min": 0.0253603344,
            "estimated_diameter_max": 0.0567074318
        },
        "meters": {
            "estimated_diameter_min": 25.3603344453,
            "estimated_diameter_max": 56.7074317518
        },
        "miles": {
            "estimated_diameter_min": 0.0157581764,
            "estimated_diameter_max": 0.0352363536
        },
        "feet": {
            "estimated_diameter_min": 83.2031996615,
            "estimated_diameter_max": 186.0480103886
        }
    },
    "is_potentially_hazardous_asteroid": false,
    "close_approach_data": [
        {
            "close_approach_date": "1912-03-24",
            "close_approach_date_full": "1912-Mar-24 12:20",
            "epoch_date_close_approach": -1823168400000,
            "relative_velocity": {
                "kilometers_per_second": "17.0323779442",
                "kilometers_per_hour": "61316.560599241",
                "miles_per_hour": "38099.7262234561"
            },
            "miss_distance": {
                "astronomical": "0.2055694812",
                "lunar": "79.9665281868",
                "kilometers": "30752756.524525044",
                "miles": "19108876.8139478472"
            },
            "orbiting_body": "Earth"
        },
        {
            "close_approach_date": "2020-11-12",
            "close_approach_date_full": "2020-Nov-12 19:34",
            "epoch_date_close_approach": 1605209640000,
            "relative_velocity": {
                "kilometers_per_second": "11.2357268727",
                "kilometers_per_hour": "40448.6167415904",
                "miles_per_hour": "25133.1974414621"
            },
            "miss_distance": {
                "astronomical": "0.0352746318",
                "lunar": "13.7218317702",
                "kilometers": "5277009.782314266",
                "miles": "3278981.8303222308"
            },
            "orbiting_body": "Earth"
        },
        {
            "close_approach_date": "2022-11-03",
            "close_approach_date_full": "2022-Nov-03 01:30",
            "epoch_date_close_approach": 1667439000000,
            "relative_velocity": {
                "kilometers_per_second": "14.568986023",
                "kilometers_per_hour": "52448.3496828968",
                "miles_per_hour": "32589.3648349089"
            },
            "miss_distance": {
                "astronomical": "0.1074359595",
                "lunar": "41.7925882455",
                "kilometers": "16072190.702606265",
                "miles": "9986796.208705857"
            },
            "orbiting_body": "Earth"
        },
        {
            "close_approach_date": "2024-10-25",
            "close_approach_date_full": "2024-Oct-25 16:16",
            "epoch_date_close_approach": 1729872960000,
            "relative_velocity": {
                "kilometers_per_second": "18.2626368864",
                "kilometers_per_hour": "65745.4927911181",
                "miles_per_hour": "40851.6924512367"
            },
            "miss_distance": {
                "astronomical": "0.2277120102",
                "lunar": "88.5799719678",
                "kilometers": "34065231.699338274",
                "miles": "21167153.4440212212"
            },
            "orbiting_body": "Earth"
        }
    ],
    "orbital_data": {
        "orbit_id": "7",
        "orbit_determination_date": "2020-11-10 05:19:31",
        "first_observation_date": "2020-10-22",
        "last_observation_date": "2020-11-09",
        "data_arc_in_days": 18,
        "observations_used": 56,
        "orbit_uncertainty": "8",
        "minimum_orbit_intersection": ".033067",
        "jupiter_tisserand_invariant": "4.262",
        "epoch_osculation": "2459154.5",
        "eccentricity": ".4785519690955863",
        "semi_major_axis": "1.577420820349008",
        "inclination": "4.845226883409006",
        "ascending_node_longitude": "251.6498332115107",
        "orbital_period": "723.6353596472201",
        "perihelion_distance": ".8225429806786152",
        "perihelion_argument": "217.4704772290686",
        "aphelion_distance": "2.332298660019401",
        "perihelion_time": "2459207.941220414842",
        "mean_anomaly": "333.4136273292087",
        "mean_motion": ".4974881274119936",
        "equinox": "J2000",
        "orbit_class": {
            "orbit_class_type": "APO",
            "orbit_class_description": "Near-Earth asteroid orbits which cross the Earth’s orbit similar to that of 1862 Apollo",
            "orbit_class_range": "a (semi-major axis) > 1.0 AU; q (perihelion) < 1.017 AU"
        }
    },
    "is_sentry_object": false
}